{
  "type": "FeatureCollection",
  "features": [
    {
      "type": "Feature",
      "properties": {
        "norad_id": 31825,
        "name": "FENGYUN 1C DEB",
        "group": "fengyun-1c-debris",
        "lat": 11.271949555851338,
        "lon": -8.849150054252148,
        "alt_km": 747.7087787375376,
        "timestamp": "2025-12-19T10:50:01.485287+00:00",
        "meta_object_name": "FENGYUN 1C DEB",
        "meta_object_id": "1999-025CHP",
        "meta_epoch": "2025-12-18T19:34:46.790112",
        "meta_mean_motion": 14.21667617,
        "meta_eccentricity": 0.01652746,
        "meta_inclination": 98.59,
        "meta_ra_of_asc_node": 352.2583,
        "meta_arg_of_pericenter": 320.6653,
        "meta_mean_anomaly": 38.2613,
        "meta_ephemeris_type": 0,
        "meta_classification_type": "U",
        "meta_norad_cat_id": 31825,
        "meta_element_set_no": 999,
        "meta_rev_at_epoch": 95708,
        "meta_bstar": 0.00053069422,
        "meta_mean_motion_dot": 1.293e-05,
        "meta_mean_motion_ddot": 0,
        "tle_line1": "1 31825U 99025CHP 25352.81581933  .00001293  00000+0  53069-3 0  9999",
        "tle_line2": "2 31825  98.5900 352.2583 0165274 320.6653  38.2613 14.21667617957083"
      },
      "geometry": {
        "type": "Point",
        "coordinates": [
          -8.849150054252148,
          11.271949555851338
        ]
      }
    },
    {
      "type": "Feature",
      "properties": {
        "norad_id": 31826,
        "name": "FENGYUN 1C DEB",
        "group": "fengyun-1c-debris",
        "lat": 2.708358626911381,
        "lon": 164.81434895211203,
        "alt_km": 741.5032322699253,
        "timestamp": "2025-12-19T10:50:01.485297+00:00",
        "meta_object_name": "FENGYUN 1C DEB",
        "meta_object_id": "1999-025CHQ",
        "meta_epoch": "2025-12-18T11:02:17.709216",
        "meta_mean_motion": 14.19283754,
        "meta_eccentricity": 0.01242089,
        "meta_inclination": 98.6261,
        "meta_ra_of_asc_node": 343.4374,
        "meta_arg_of_pericenter": 172.7673,
        "meta_mean_anomaly": 341.1725,
        "meta_ephemeris_type": 0,
        "meta_classification_type": "U",
        "meta_norad_cat_id": 31826,
        "meta_element_set_no": 999,
        "meta_rev_at_epoch": 95895,
        "meta_bstar": 0.00027974366,
        "meta_mean_motion_dot": 5.91e-06,
        "meta_mean_motion_ddot": 0,
        "tle_line1": "1 31826U 99025CHQ 25352.45992719  .00000591  00000+0  27974-3 0  9994",
        "tle_line2": "2 31826  98.6261 343.4374 0124208 172.7673 341.1725 14.19283754958955"
      },
      "geometry": {
        "type": "Point",
        "coordinates": [
          164.81434895211203,
          2.708358626911381
        ]
      }
    },
    {
      "type": "Feature",
      "properties": {
        "norad_id": 31829,
        "name": "FENGYUN 1C DEB",
        "group": "fengyun-1c-debris",
        "lat": -12.586084439591243,
        "lon": 164.92477205821064,
        "alt_km": 1052.7221230067398,
        "timestamp": "2025-12-19T10:50:01.485308+00:00",
        "meta_object_name": "FENGYUN 1C DEB",
        "meta_object_id": "1999-025CHT",
        "meta_epoch": "2025-12-17T17:28:41.251008",
        "meta_mean_motion": 13.88689135,
        "meta_eccentricity": 0.01692756,
        "meta_inclination": 98.8357,
        "meta_ra_of_asc_node": 161.3008,
        "meta_arg_of_pericenter": 150.8846,
        "meta_mean_anomaly": 227.3761,
        "meta_ephemeris_type": 0,
        "meta_classification_type": "U",
        "meta_norad_cat_id": 31829,
        "meta_element_set_no": 999,
        "meta_rev_at_epoch": 94217,
        "meta_bstar": 0.0003456228,
        "meta_mean_motion_dot": 4.27e-06,
        "meta_mean_motion_ddot": 0,
        "tle_line1": "1 31829U 99025CHT 25351.72825522  .00000427  00000+0  34562-3 0  9992",
        "tle_line2": "2 31829  98.8357 161.3008 0169275 150.8846 227.3761 13.88689135942179"
      },
      "geometry": {
        "type": "Point",
        "coordinates": [
          164.92477205821064,
          -12.586084439591243
        ]
      }
    },
    {
      "type": "Feature",
      "properties": {
        "norad_id": 31830,
        "name": "FENGYUN 1C DEB",
        "group": "fengyun-1c-debris",
        "lat": -47.202129628058486,
        "lon": -91.06964752445653,
        "alt_km": 907.0572726807632,
        "timestamp": "2025-12-19T10:50:01.485318+00:00",
        "meta_object_name": "FENGYUN 1C DEB",
        "meta_object_id": "1999-025CHU",
        "meta_epoch": "2025-12-18T06:05:02.359392",
        "meta_mean_motion": 13.83443907,
        "meta_eccentricity": 0.01831599,
        "meta_inclination": 99.1642,
        "meta_ra_of_asc_node": 97.8028,
        "meta_arg_of_pericenter": 299.6178,
        "meta_mean_anomaly": 87.3932,
        "meta_ephemeris_type": 0,
        "meta_classification_type": "U",
        "meta_norad_cat_id": 31830,
        "meta_element_set_no": 999,
        "meta_rev_at_epoch": 92816,
        "meta_bstar": 0.0016630284,
        "meta_mean_motion_dot": 2.039e-05,
        "meta_mean_motion_ddot": 0,
        "tle_line1": "1 31830U 99025CHU 25352.25349953  .00002039  00000+0  16630-2 0  9998",
        "tle_line2": "2 31830  99.1642  97.8028 0183159 299.6178  87.3932 13.83443907928161"
      },
      "geometry": {
        "type": "Point",
        "coordinates": [
          -91.06964752445653,
          -47.202129628058486
        ]
      }
    },
    {
      "type": "Feature",
      "properties": {
        "norad_id": 31834,
        "name": "FENGYUN 1C DEB",
        "group": "fengyun-1c-debris",
        "lat": 45.046889894915545,
        "lon": 41.59632691336473,
        "alt_km": 847.7172224493679,
        "timestamp": "2025-12-19T10:50:01.485328+00:00",
        "meta_object_name": "FENGYUN 1C DEB",
        "meta_object_id": "1999-025CHY",
        "meta_epoch": "2025-12-18T20:31:16.245696",
        "meta_mean_motion": 14.03157697,
        "meta_eccentricity": 0.01626243,
        "meta_inclination": 98.3672,
        "meta_ra_of_asc_node": 212.5704,
        "meta_arg_of_pericenter": 60.3872,
        "meta_mean_anomaly": 301.3387,
        "meta_ephemeris_type": 0,
        "meta_classification_type": "U",
        "meta_norad_cat_id": 31834,
        "meta_element_set_no": 999,
        "meta_rev_at_epoch": 63796,
        "meta_bstar": 0.00022626271,
        "meta_mean_motion_dot": 3.58e-06,
        "meta_mean_motion_ddot": 0,
        "tle_line1": "1 31834U 99025CHY 25352.85504914  .00000358  00000+0  22626-3 0  9993",
        "tle_line2": "2 31834  98.3672 212.5704 0162624  60.3872 301.3387 14.03157697637963"
      },
      "geometry": {
        "type": "Point",
        "coordinates": [
          41.59632691336473,
          45.046889894915545
        ]
      }
    },
    {
      "type": "Feature",
      "properties": {
        "norad_id": 31837,
        "name": "FENGYUN 1C DEB",
        "group": "fengyun-1c-debris",
        "lat": 31.09337510217378,
        "lon": -105.99598208956317,
        "alt_km": 677.9469400338085,
        "timestamp": "2025-12-19T10:50:01.485339+00:00",
        "meta_object_name": "FENGYUN 1C DEB",
        "meta_object_id": "1999-025CJB",
        "meta_epoch": "2025-12-18T11:29:15.674496",
        "meta_mean_motion": 14.82330224,
        "meta_eccentricity": 0.00931656,
        "meta_inclination": 98.1015,
        "meta_ra_of_asc_node": 68.0911,
        "meta_arg_of_pericenter": 359.156,
        "meta_mean_anomaly": 0.9481,
        "meta_ephemeris_type": 0,
        "meta_classification_type": "U",
        "meta_norad_cat_id": 31837,
        "meta_element_set_no": 999,
        "meta_rev_at_epoch": 98444,
        "meta_bstar": 0.00086076485,
        "meta_mean_motion_dot": 7.369e-05,
        "meta_mean_motion_ddot": 0,
        "tle_line1": "1 31837U 99025CJB 25352.47865364  .00007369  00000+0  86076-3 0  9991",
        "tle_line2": "2 31837  98.1015  68.0911 0093165 359.1560   0.9481 14.82330224984446"
      },
      "geometry": {
        "type": "Point",
        "coordinates": [
          -105.99598208956317,
          31.09337510217378
        ]
      }
    },
    {
      "type": "Feature",
      "properties": {
        "norad_id": 31838,
        "name": "FENGYUN 1C DEB",
        "group": "fengyun-1c-debris",
        "lat": -3.3333397716056914,
        "lon": 44.56823670413682,
        "alt_km": 819.7171622991218,
        "timestamp": "2025-12-19T10:50:01.485349+00:00",
        "meta_object_name": "FENGYUN 1C DEB",
        "meta_object_id": "1999-025CJC",
        "meta_epoch": "2025-12-17T08:26:31.079040",
        "meta_mean_motion": 14.21147066,
        "meta_eccentricity": 0.00383301,
        "meta_inclination": 98.7181,
        "meta_ra_of_asc_node": 41.9841,
        "meta_arg_of_pericenter": 82.4051,
        "meta_mean_anomaly": 338.6922,
        "meta_ephemeris_type": 0,
        "meta_classification_type": "U",
        "meta_norad_cat_id": 31838,
        "meta_element_set_no": 999,
        "meta_rev_at_epoch": 64642,
        "meta_bstar": 0.00054487511,
        "meta_mean_motion_dot": 1.15e-05,
        "meta_mean_motion_ddot": 0,
        "tle_line1": "1 31838U 99025CJC 25351.35174860  .00001150  00000+0  54488-3 0  9996",
        "tle_line2": "2 31838  98.7181  41.9841 0038330  82.4051 338.6922 14.21147066646420"
      },
      "geometry": {
        "type": "Point",
        "coordinates": [
          44.56823670413682,
          -3.3333397716056914
        ]
      }
    }
  ]
}